OBJECT_NAME,OBJECT_ID,EPOCH,MEAN_MOTION,ECCENTRICITY,INCLINATION,RA_OF_ASC_NODE,ARG_OF_PERICENTER,MEAN_ANOMALY,EPHEMERIS_TYPE,CLASSIFICATION_TYPE,NORAD_CAT_ID,ELEMENT_SET_NO,REV_AT_EPOCH,BSTAR,MEAN_MOTION_DOT,MEAN_MOTION_DDOT
STARLINK-30704,2023-148M,2026-06-14T07:16:13.016352,15.34391886,.00009426,53.1613,12.4107,90.1200,269.9911,0,U,57946,999,15211,-.461949E-5,-.532E-5,0
STARLINK-30706,2023-148N,2026-06-14T14:15:15.132096,15.34392789,.00013585,53.1619,293.1186,88.2719,271.8439,0,U,57947,999,15327,.13226401E-3,.4094E-4,0
STARLINK-30707,2023-148Q,2026-06-14T13:02:38.190048,15.34408753,.00008602,53.1613,293.5187,98.7842,261.3258,0,U,57949,999,15326,.19770784E-4,.292E-5,0
STARLINK-30701,2023-148R,2026-06-14T15:30:59.048064,15.34407670,.00013223,53.1626,293.4371,118.9819,241.1316,0,U,57950,999,15327,-.33959817E-4,-.1524E-4,0
STARLINK-30399,2023-148S,2026-06-14T12:50:33.123840,15.34393278,.00010286,53.1620,293.4477,107.8924,252.2191,0,U,57951,999,15326,.11160642E-4,.1E-7,0
STARLINK-30713,2023-148T,2026-06-14T15:06:45.407808,15.34396031,.00012631,53.1615,293.3469,91.2943,268.8204,0,U,57952,999,15327,-.4232898E-5,-.519E-5,0
STARLINK-30700,2023-148U,2026-06-14T13:59:32.007840,15.30191045,.00011178,53.1616,284.1511,89.2931,270.8198,0,U,57953,999,15339,.31608658E-4,.577E-5,0
STARLINK-30703,2023-148V,2026-06-14T14:24:10.766304,15.34404067,.00011122,53.1610,283.0863,88.9721,271.1409,0,U,57954,999,15341,.30813549E-4,.665E-5,0
STARLINK-30702,2023-148W,2026-06-14T13:57:03.474144,15.34378282,.00012642,53.1607,283.6677,111.7769,248.3368,0,U,57955,999,15340,.18299537E-3,.5807E-4,0
STARLINK-30396,2023-151A,2026-06-13T16:21:58.766688,15.27579389,.00013009,43.0032,154.1997,274.4198,85.6505,0,U,57964,999,15044,.17513621E-4,.22E-5,0
STARLINK-30524,2023-151B,2026-06-14T06:20:08.621088,15.27574259,.000105,43.0019,150.8311,269.9091,90.1640,0,U,57965,999,15053,-.15794E-4,-.696E-5,0
STARLINK-30521,2023-151C,2026-06-11T06:55:00.226848,15.27570377,.0002054,43.0033,167.1946,275.2147,84.8470,0,U,57966,999,15008,-.13614E-4,-.637E-5,0
STARLINK-30528,2023-151D,2026-06-13T06:05:13.993152,15.27584305,.0001545,43.0091,156.1459,272.7878,87.2797,0,U,57967,999,15038,-.20361E-4,-.823E-5,0
STARLINK-30495,2023-151E,2026-06-14T05:57:55.794816,15.27580121,.0000792,43.0046,150.7044,272.2247,87.8514,0,U,57968,999,15053,-.15431E-4,-.687E-5,0
STARLINK-30494,2023-151G,2026-06-14T06:12:58.395744,15.27568579,.0001127,43.0035,5.1811,261.6150,98.4573,0,U,57970,999,15222,-.34997E-4,-.1225E-4,0
STARLINK-30498,2023-151H,2026-06-14T15:17:19.403232,15.27575090,.00011975,43.0028,148.4480,264.4308,95.6407,0,U,57971,999,15059,-.3434456E-5,-.357E-5,0
STARLINK-30505,2023-151J,2026-06-14T06:25:41.227392,15.27596236,.0000016,43.0031,150.8357,300.0683,60.0167,0,U,57972,999,15053,.86388E-3,.23598E-3,0
STARLINK-30502,2023-151K,2026-06-14T05:46:50.267712,15.27572188,.0001312,43.0018,150.6379,273.1600,86.9102,0,U,57973,999,15053,-.10416E-4,-.549E-5,0
STARLINK-30489,2023-151L,2026-06-14T15:19:10.511040,15.27573969,.00012361,42.9972,148.4663,261.9195,98.1516,0,U,57974,999,15059,.13905464E-4,.121E-5,0
STARLINK-30503,2023-151M,2026-06-13T16:27:31.631328,15.27577034,.0000883,43.0025,154.1886,267.1574,92.9176,0,U,57975,999,15044,.11213734E-4,.47E-6,0
STARLINK-30512,2023-151N,2026-06-14T05:43:10.389216,15.27540588,.0001516,43.0006,150.5656,277.8052,82.2627,0,U,57976,999,15053,-.1473E-3,-.4308E-4,0
STARLINK-30509,2023-151P,2026-06-14T06:23:01.764096,15.27574664,.00023,43.0039,165.2621,276.0728,83.9862,0,U,57977,999,15036,-.54819E-4,-.1771E-4,0
STARLINK-30511,2023-151Q,2026-06-14T06:32:17.417184,15.27579915,.0000209,42.9980,165.3085,154.7208,205.3653,0,U,57978,999,15036,.27769E-4,.503E-5,0
STARLINK-30508,2023-151R,2026-06-14T06:37:50.952288,15.27586144,.0001903,43.0026,165.3285,282.5343,77.5296,0,U,57979,999,15036,.73633E-4,.1765E-4,0
STARLINK-30510,2023-151T,2026-06-13T17:32:26.983968,15.27571786,.00011029,43.0029,171.5241,270.7996,89.2729,0,U,57981,999,15024,.4639584E-5,-.134E-5,0
STARLINK-30507,2023-151U,2026-06-13T17:37:59.024352,15.27576216,.0002428,43.0044,171.5574,269.1420,90.9154,0,U,57982,999,15023,.71238902E-4,.1698E-4,0
STARLINK-30515,2023-151V,2026-06-13T17:43:31.893312,15.27571771,.00017667,43.0040,171.5803,274.1207,85.9443,0,U,57983,999,15023,-.23583159E-4,-.911E-5,0
STARLINK-30516,2023-151W,2026-06-13T17:49:04.642176,15.27582512,.00014335,43.0029,171.6179,278.1785,81.8904,0,U,57984,999,15024,.38914807E-4,.809E-5,0
STARLINK-30519,2023-151X,2026-06-14T06:45:14.897088,15.27575302,.0001429,43.0034,165.3688,266.6082,93.4606,0,U,57985,999,15030,-.29454E-5,-.343E-5,0
STARLINK-30537,2023-153A,2026-06-13T21:56:23.804160,15.27573487,.0001064,42.9991,243.5512,262.3100,97.7631,0,U,57991,999,14951,.90705E-5,-.12E-6,0
