STARLINK-30704          
1 57946U 23148M   26165.30292843 -.00000532  00000+0 -46195-5 0  9991
2 57946  53.1613  12.4107 0000942  90.1200 269.9911 15.34391886152119
STARLINK-30706          
1 57947U 23148N   26165.59392514  .00004094  00000+0  13226-3 0  9991
2 57947  53.1619 293.1186 0001358  88.2719 271.8439 15.34392789153274
STARLINK-30707          
1 57949U 23148Q   26165.54349757  .00000292  00000+0  19771-4 0  9997
2 57949  53.1613 293.5187 0000860  98.7842 261.3258 15.34408753153266
STARLINK-30701          
1 57950U 23148R   26165.64651676 -.00001524  00000+0 -33960-4 0  9993
2 57950  53.1626 293.4371 0001322 118.9819 241.1316 15.34407670153278
STARLINK-30399          
1 57951U 23148S   26165.53510560  .00000001  00000+0  11161-4 0  9994
2 57951  53.1620 293.4477 0001028 107.8924 252.2191 15.34393278153268
STARLINK-30713          
1 57952U 23148T   26165.62969222 -.00000519  00000+0 -42329-5 0  9995
2 57952  53.1615 293.3469 0001263  91.2943 268.8204 15.34396031153270
STARLINK-30700          
1 57953U 23148U   26165.58300935  .00000577  00000+0  31609-4 0  9991
2 57953  53.1616 284.1511 0001117  89.2931 270.8198 15.30191045153392
STARLINK-30703          
1 57954U 23148V   26165.60012461  .00000665  00000+0  30814-4 0  9994
2 57954  53.1610 283.0863 0001112  88.9721 271.1409 15.34404067153410
STARLINK-30702          
1 57955U 23148W   26165.58129021  .00005807  00000+0  18300-3 0  9991
2 57955  53.1607 283.6677 0001264 111.7769 248.3368 15.34378282153409
STARLINK-30396          
1 57964U 23151A   26164.68193017  .00000220  00000+0  17514-4 0  9992
2 57964  43.0032 154.1997 0001300 274.4198  85.6505 15.27579389150449
STARLINK-30524          
1 57965U 23151B   26165.26398867 -.00000696  00000+0 -15794-4 0  9995
2 57965  43.0019 150.8311 0001050 269.9091  90.1640 15.27574259150533
STARLINK-30521          
1 57966U 23151C   26162.28819707 -.00000637  00000+0 -13614-4 0  9990
2 57966  43.0033 167.1946 0002054 275.2147  84.8470 15.27570377150080
STARLINK-30528          
1 57967U 23151D   26164.25363418 -.00000823  00000+0 -20361-4 0  9997
2 57967  43.0091 156.1459 0001545 272.7878  87.2797 15.27584305150387
STARLINK-30495          
1 57968U 23151E   26165.24856244 -.00000687  00000+0 -15431-4 0  9992
2 57968  43.0046 150.7044 0000792 272.2247  87.8514 15.27580121150538
STARLINK-30494          
1 57970U 23151G   26165.25900921 -.00001225  00000+0 -34997-4 0  9995
2 57970  43.0035   5.1811 0001127 261.6150  98.4573 15.27568579152226
STARLINK-30498          
1 57971U 23151H   26165.63703013 -.00000357  00000+0 -34345-5 0  9994
2 57971  43.0028 148.4480 0001197 264.4308  95.6407 15.27575090150594
STARLINK-30505          
1 57972U 23151J   26165.26783828  .00023598  00000+0  86388-3 0  9998
2 57972  43.0031 150.8357 0000016 300.0683  60.0167 15.27596236150539
STARLINK-30502          
1 57973U 23151K   26165.24085958 -.00000549  00000+0 -10416-4 0  9999
2 57973  43.0018 150.6379 0001312 273.1600  86.9102 15.27572188150532
STARLINK-30489          
1 57974U 23151L   26165.63831610  .00000121  00000+0  13905-4 0  9997
2 57974  42.9972 148.4663 0001236 261.9195  98.1516 15.27573969150598
STARLINK-30503          
1 57975U 23151M   26164.68578277  .00000047  00000+0  11214-4 0  9997
2 57975  43.0025 154.1886 0000883 267.1574  92.9176 15.27577034150442
STARLINK-30512          
1 57976U 23151N   26165.23831469 -.00004308  00000+0 -14730-3 0  9996
2 57976  43.0006 150.5656 0001516 277.8052  82.2627 15.27540588150537
STARLINK-30509          
1 57977U 23151P   26165.26599264 -.00001771  00000+0 -54819-4 0  9998
2 57977  43.0039 165.2621 0002300 276.0728  83.9862 15.27574664150364
STARLINK-30511          
1 57978U 23151Q   26165.27242381  .00000503  00000+0  27769-4 0  9999
2 57978  42.9980 165.3085 0000209 154.7208 205.3653 15.27579915150366
STARLINK-30508          
1 57979U 23151R   26165.27628417  .00001765  00000+0  73633-4 0  9990
2 57979  43.0026 165.3285 0001903 282.5343  77.5296 15.27586144150368
STARLINK-30510          
1 57981U 23151T   26164.73086787 -.00000134  00000+0  46396-5 0  9998
2 57981  43.0029 171.5241 0001102 270.7996  89.2729 15.27571786150243
STARLINK-30507          
1 57982U 23151U   26164.73471093  .00001698  00000+0  71239-4 0  9995
2 57982  43.0044 171.5574 0002428 269.1420  90.9154 15.27576216150239
STARLINK-30515          
1 57983U 23151V   26164.73856358 -.00000911  00000+0 -23583-4 0  9995
2 57983  43.0040 171.5803 0001766 274.1207  85.9443 15.27571771150230
STARLINK-30516          
1 57984U 23151W   26164.74241484  .00000809  00000+0  38915-4 0  9994
2 57984  43.0029 171.6179 0001433 278.1785  81.8904 15.27582512150244
STARLINK-30519          
1 57985U 23151X   26165.28142242 -.00000343  00000+0 -29454-5 0  9991
2 57985  43.0034 165.3688 0001429 266.6082  93.4606 15.27575302150307
STARLINK-30537          
1 57991U 23153A   26164.91416440 -.00000012  00000+0  90705-5 0  9992
2 57991  42.9991 243.5512 0001064 262.3100  97.7631 15.27573487149516
